<?xml version="1.0" encoding="UTF-8"?><gpx version="1.1" creator="gpxsheet"><wpt lat="38.050000" lon="-122.940000"><name>Chevron Fuel</name></wpt><wpt lat="38.050000" lon="-122.880000"><name>Gualala</name></wpt><trk><name>Demo Coast Loop</name><trkseg><trkpt lat="38.000000" lon="-123.000000"></trkpt><trkpt lat="38.000000" lon="-122.999000"></trkpt><trkpt lat="38.000000" lon="-122.998000"></trkpt><trkpt lat="38.000000" lon="-122.997000"></trkpt><trkpt lat="38.000000" lon="-122.996000"></trkpt><trkpt lat="38.000000" lon="-122.995000"></trkpt><trkpt lat="38.000000" lon="-122.994000"></trkpt><trkpt lat="38.000000" lon="-122.993000"></trkpt><trkpt lat="38.000000" lon="-122.992000"></trkpt><trkpt lat="38.000000" lon="-122.991000"></trkpt><trkpt lat="38.000000" lon="-122.990000"></trkpt><trkpt lat="38.000000" lon="-122.989000"></trkpt><trkpt lat="38.000000" lon="-122.988000"></trkpt><trkpt lat="38.000000" lon="-122.987000"></trkpt><trkpt lat="38.000000" lon="-122.986000"></trkpt><trkpt lat="38.000000" lon="-122.985000"></trkpt><trkpt lat="38.000000" lon="-122.984000"></trkpt><trkpt lat="38.000000" lon="-122.983000"></trkpt><trkpt lat="38.000000" lon="-122.982000"></trkpt><trkpt lat="38.000000" lon="-122.981000"></trkpt><trkpt lat="38.000000" lon="-122.980000"></trkpt><trkpt lat="38.000000" lon="-122.979000"></trkpt><trkpt lat="38.000000" lon="-122.978000"></trkpt><trkpt lat="38.000000" lon="-122.977000"></trkpt><trkpt lat="38.000000" lon="-122.976000"></trkpt><trkpt lat="38.000000" lon="-122.975000"></trkpt><trkpt lat="38.000000" lon="-122.974000"></trkpt><trkpt lat="38.000000" lon="-122.973000"></trkpt><trkpt lat="38.000000" lon="-122.972000"></trkpt><trkpt lat="38.000000" lon="-122.971000"></trkpt><trkpt lat="38.000000" lon="-122.970000"></trkpt><trkpt lat="38.000000" lon="-122.969000"></trkpt><trkpt lat="38.000000" lon="-122.968000"></trkpt><trkpt lat="38.000000" lon="-122.967000"></trkpt><trkpt lat="38.000000" lon="-122.966000"></trkpt><trkpt lat="38.000000" lon="-122.965000"></trkpt><trkpt lat="38.000000" lon="-122.964000"></trkpt><trkpt lat="38.000000" lon="-122.963000"></trkpt><trkpt lat="38.000000" lon="-122.962000"></trkpt><trkpt lat="38.000000" lon="-122.961000"></trkpt><trkpt lat="38.000000" lon="-122.960000"></trkpt><trkpt lat="38.000000" lon="-122.959000"></trkpt><trkpt lat="38.000000" lon="-122.958000"></trkpt><trkpt lat="38.000000" lon="-122.957000"></trkpt><trkpt lat="38.000000" lon="-122.956000"></trkpt><trkpt lat="38.000000" lon="-122.955000"></trkpt><trkpt lat="38.000000" lon="-122.954000"></trkpt><trkpt lat="38.000000" lon="-122.953000"></trkpt><trkpt lat="38.000000" lon="-122.952000"></trkpt><trkpt lat="38.000000" lon="-122.951000"></trkpt><trkpt lat="38.000000" lon="-122.950000"></trkpt><trkpt lat="38.000000" lon="-122.949000"></trkpt><trkpt lat="38.000000" lon="-122.948000"></trkpt><trkpt lat="38.000000" lon="-122.947000"></trkpt><trkpt lat="38.000000" lon="-122.946000"></trkpt><trkpt lat="38.000000" lon="-122.945000"></trkpt><trkpt lat="38.000000" lon="-122.944000"></trkpt><trkpt lat="38.000000" lon="-122.943000"></trkpt><trkpt lat="38.000000" lon="-122.942000"></trkpt><trkpt lat="38.000000" lon="-122.941000"></trkpt><trkpt lat="38.000000" lon="-122.940000"></trkpt><trkpt lat="38.001000" lon="-122.940000"></trkpt><trkpt lat="38.002000" lon="-122.940000"></trkpt><trkpt lat="38.003000" lon="-122.940000"></trkpt><trkpt lat="38.004000" lon="-122.940000"></trkpt><trkpt lat="38.005000" lon="-122.940000"></trkpt><trkpt lat="38.006000" lon="-122.940000"></trkpt><trkpt lat="38.007000" lon="-122.940000"></trkpt><trkpt lat="38.008000" lon="-122.940000"></trkpt><trkpt lat="38.009000" lon="-122.940000"></trkpt><trkpt lat="38.010000" lon="-122.940000"></trkpt><trkpt lat="38.011000" lon="-122.940000"></trkpt><trkpt lat="38.012000" lon="-122.940000"></trkpt><trkpt lat="38.013000" lon="-122.940000"></trkpt><trkpt lat="38.014000" lon="-122.940000"></trkpt><trkpt lat="38.015000" lon="-122.940000"></trkpt><trkpt lat="38.016000" lon="-122.940000"></trkpt><trkpt lat="38.017000" lon="-122.940000"></trkpt><trkpt lat="38.018000" lon="-122.940000"></trkpt><trkpt lat="38.019000" lon="-122.940000"></trkpt><trkpt lat="38.020000" lon="-122.940000"></trkpt><trkpt lat="38.021000" lon="-122.940000"></trkpt><trkpt lat="38.022000" lon="-122.940000"></trkpt><trkpt lat="38.023000" lon="-122.940000"></trkpt><trkpt lat="38.024000" lon="-122.940000"></trkpt><trkpt lat="38.025000" lon="-122.940000"></trkpt><trkpt lat="38.026000" lon="-122.940000"></trkpt><trkpt lat="38.027000" lon="-122.940000"></trkpt><trkpt lat="38.028000" lon="-122.940000"></trkpt><trkpt lat="38.029000" lon="-122.940000"></trkpt><trkpt lat="38.030000" lon="-122.940000"></trkpt><trkpt lat="38.031000" lon="-122.940000"></trkpt><trkpt lat="38.032000" lon="-122.940000"></trkpt><trkpt lat="38.033000" lon="-122.940000"></trkpt><trkpt lat="38.034000" lon="-122.940000"></trkpt><trkpt lat="38.035000" lon="-122.940000"></trkpt><trkpt lat="38.036000" lon="-122.940000"></trkpt><trkpt lat="38.037000" lon="-122.940000"></trkpt><trkpt lat="38.038000" lon="-122.940000"></trkpt><trkpt lat="38.039000" lon="-122.940000"></trkpt><trkpt lat="38.040000" lon="-122.940000"></trkpt><trkpt lat="38.041000" lon="-122.940000"></trkpt><trkpt lat="38.042000" lon="-122.940000"></trkpt><trkpt lat="38.043000" lon="-122.940000"></trkpt><trkpt lat="38.044000" lon="-122.940000"></trkpt><trkpt lat="38.045000" lon="-122.940000"></trkpt><trkpt lat="38.046000" lon="-122.940000"></trkpt><trkpt lat="38.047000" lon="-122.940000"></trkpt><trkpt lat="38.048000" lon="-122.940000"></trkpt><trkpt lat="38.049000" lon="-122.940000"></trkpt><trkpt lat="38.050000" lon="-122.940000"></trkpt><trkpt lat="38.050000" lon="-122.939000"></trkpt><trkpt lat="38.050000" lon="-122.938000"></trkpt><trkpt lat="38.050000" lon="-122.937000"></trkpt><trkpt lat="38.050000" lon="-122.936000"></trkpt><trkpt lat="38.050000" lon="-122.935000"></trkpt><trkpt lat="38.050000" lon="-122.934000"></trkpt><trkpt lat="38.050000" lon="-122.933000"></trkpt><trkpt lat="38.050000" lon="-122.932000"></trkpt><trkpt lat="38.050000" lon="-122.931000"></trkpt><trkpt lat="38.050000" lon="-122.930000"></trkpt><trkpt lat="38.050000" lon="-122.929000"></trkpt><trkpt lat="38.050000" lon="-122.928000"></trkpt><trkpt lat="38.050000" lon="-122.927000"></trkpt><trkpt lat="38.050000" lon="-122.926000"></trkpt><trkpt lat="38.050000" lon="-122.925000"></trkpt><trkpt lat="38.050000" lon="-122.924000"></trkpt><trkpt lat="38.050000" lon="-122.923000"></trkpt><trkpt lat="38.050000" lon="-122.922000"></trkpt><trkpt lat="38.050000" lon="-122.921000"></trkpt><trkpt lat="38.050000" lon="-122.920000"></trkpt><trkpt lat="38.050000" lon="-122.919000"></trkpt><trkpt lat="38.050000" lon="-122.918000"></trkpt><trkpt lat="38.050000" lon="-122.917000"></trkpt><trkpt lat="38.050000" lon="-122.916000"></trkpt><trkpt lat="38.050000" lon="-122.915000"></trkpt><trkpt lat="38.050000" lon="-122.914000"></trkpt><trkpt lat="38.050000" lon="-122.913000"></trkpt><trkpt lat="38.050000" lon="-122.912000"></trkpt><trkpt lat="38.050000" lon="-122.911000"></trkpt><trkpt lat="38.050000" lon="-122.910000"></trkpt><trkpt lat="38.050000" lon="-122.909000"></trkpt><trkpt lat="38.050000" lon="-122.908000"></trkpt><trkpt lat="38.050000" lon="-122.907000"></trkpt><trkpt lat="38.050000" lon="-122.906000"></trkpt><trkpt lat="38.050000" lon="-122.905000"></trkpt><trkpt lat="38.050000" lon="-122.904000"></trkpt><trkpt lat="38.050000" lon="-122.903000"></trkpt><trkpt lat="38.050000" lon="-122.902000"></trkpt><trkpt lat="38.050000" lon="-122.901000"></trkpt><trkpt lat="38.050000" lon="-122.900000"></trkpt><trkpt lat="38.050000" lon="-122.899000"></trkpt><trkpt lat="38.050000" lon="-122.898000"></trkpt><trkpt lat="38.050000" lon="-122.897000"></trkpt><trkpt lat="38.050000" lon="-122.896000"></trkpt><trkpt lat="38.050000" lon="-122.895000"></trkpt><trkpt lat="38.050000" lon="-122.894000"></trkpt><trkpt lat="38.050000" lon="-122.893000"></trkpt><trkpt lat="38.050000" lon="-122.892000"></trkpt><trkpt lat="38.050000" lon="-122.891000"></trkpt><trkpt lat="38.050000" lon="-122.890000"></trkpt><trkpt lat="38.050000" lon="-122.889000"></trkpt><trkpt lat="38.050000" lon="-122.888000"></trkpt><trkpt lat="38.050000" lon="-122.887000"></trkpt><trkpt lat="38.050000" lon="-122.886000"></trkpt><trkpt lat="38.050000" lon="-122.885000"></trkpt><trkpt lat="38.050000" lon="-122.884000"></trkpt><trkpt lat="38.050000" lon="-122.883000"></trkpt><trkpt lat="38.050000" lon="-122.882000"></trkpt><trkpt lat="38.050000" lon="-122.881000"></trkpt><trkpt lat="38.050000" lon="-122.880000"></trkpt><trkpt lat="38.050000" lon="-122.879000"></trkpt><trkpt lat="38.050000" lon="-122.878000"></trkpt><trkpt lat="38.050000" lon="-122.877000"></trkpt><trkpt lat="38.050000" lon="-122.876000"></trkpt><trkpt lat="38.050000" lon="-122.875000"></trkpt><trkpt lat="38.050000" lon="-122.874000"></trkpt><trkpt lat="38.050000" lon="-122.873000"></trkpt><trkpt lat="38.050000" lon="-122.872000"></trkpt><trkpt lat="38.050000" lon="-122.871000"></trkpt><trkpt lat="38.050000" lon="-122.870000"></trkpt><trkpt lat="38.049000" lon="-122.870000"></trkpt><trkpt lat="38.048000" lon="-122.870000"></trkpt><trkpt lat="38.047000" lon="-122.870000"></trkpt><trkpt lat="38.046000" lon="-122.870000"></trkpt><trkpt lat="38.045000" lon="-122.870000"></trkpt><trkpt lat="38.044000" lon="-122.870000"></trkpt><trkpt lat="38.043000" lon="-122.870000"></trkpt><trkpt lat="38.042000" lon="-122.870000"></trkpt><trkpt lat="38.041000" lon="-122.870000"></trkpt><trkpt lat="38.040000" lon="-122.870000"></trkpt><trkpt lat="38.039000" lon="-122.870000"></trkpt><trkpt lat="38.038000" lon="-122.870000"></trkpt><trkpt lat="38.037000" lon="-122.870000"></trkpt><trkpt lat="38.036000" lon="-122.870000"></trkpt><trkpt lat="38.035000" lon="-122.870000"></trkpt><trkpt lat="38.034000" lon="-122.870000"></trkpt><trkpt lat="38.033000" lon="-122.870000"></trkpt><trkpt lat="38.032000" lon="-122.870000"></trkpt><trkpt lat="38.031000" lon="-122.870000"></trkpt><trkpt lat="38.030000" lon="-122.870000"></trkpt><trkpt lat="38.029000" lon="-122.870000"></trkpt><trkpt lat="38.028000" lon="-122.870000"></trkpt><trkpt lat="38.027000" lon="-122.870000"></trkpt><trkpt lat="38.026000" lon="-122.870000"></trkpt><trkpt lat="38.025000" lon="-122.870000"></trkpt><trkpt lat="38.024000" lon="-122.870000"></trkpt><trkpt lat="38.023000" lon="-122.870000"></trkpt><trkpt lat="38.022000" lon="-122.870000"></trkpt><trkpt lat="38.021000" lon="-122.870000"></trkpt><trkpt lat="38.020000" lon="-122.870000"></trkpt><trkpt lat="38.019000" lon="-122.870000"></trkpt><trkpt lat="38.018000" lon="-122.870000"></trkpt><trkpt lat="38.017000" lon="-122.870000"></trkpt><trkpt lat="38.016000" lon="-122.870000"></trkpt><trkpt lat="38.015000" lon="-122.870000"></trkpt><trkpt lat="38.014000" lon="-122.870000"></trkpt><trkpt lat="38.013000" lon="-122.870000"></trkpt><trkpt lat="38.012000" lon="-122.870000"></trkpt><trkpt lat="38.011000" lon="-122.870000"></trkpt><trkpt lat="38.010000" lon="-122.870000"></trkpt></trkseg></trk></gpx>